{
  "type": "FeatureCollection",
  "features": [
    {
      "type": "Feature",
      "properties": {
        "norad_id": 36585,
        "name": "GPS BIIF-1  (PRN 25)",
        "group": "gnss",
        "lat": -50.560886833387464,
        "lon": 155.350601154849,
        "alt_km": 20431.44739161146,
        "timestamp": "2025-12-08T21:31:04.910142+00:00",
        "meta_object_name": "GPS BIIF-1  (PRN 25)",
        "meta_object_id": "2010-022A",
        "meta_epoch": "2025-12-08T05:43:48.381888",
        "meta_mean_motion": 2.00552915,
        "meta_eccentricity": 0.01259265,
        "meta_inclination": 54.3009,
        "meta_ra_of_asc_node": 216.2555,
        "meta_arg_of_pericenter": 65.0249,
        "meta_mean_anomaly": 109.07,
        "meta_ephemeris_type": 0,
        "meta_classification_type": "U",
        "meta_norad_cat_id": 36585,
        "meta_element_set_no": 999,
        "meta_rev_at_epoch": 11376,
        "meta_bstar": 0,
        "meta_mean_motion_dot": 2.3e-07,
        "meta_mean_motion_ddot": 0,
        "tle_line1": "1 36585U 10022A   25342.23875442  .00000023  00000+0  00000+0 0  9996",
        "tle_line2": "2 36585  54.3009 216.2555 0125926  65.0249 109.0700  2.00552915113761"
      },
      "geometry": {
        "type": "Point",
        "coordinates": [
          155.350601154849,
          -50.560886833387464
        ]
      }
    },
    {
      "type": "Feature",
      "properties": {
        "norad_id": 36828,
        "name": "BEIDOU-2 IGSO-1 (C06)",
        "group": "gnss",
        "lat": -12.692546381388974,
        "lon": 155.33713527403603,
        "alt_km": 35920.19307823065,
        "timestamp": "2025-12-08T21:31:04.910154+00:00",
        "meta_object_name": "BEIDOU-2 IGSO-1 (C06)",
        "meta_object_id": "2010-036A",
        "meta_epoch": "2025-12-08T10:41:23.989056",
        "meta_mean_motion": 1.00277305,
        "meta_eccentricity": 0.0051235,
        "meta_inclination": 54.2853,
        "meta_ra_of_asc_node": 164.6865,
        "meta_arg_of_pericenter": 215.8868,
        "meta_mean_anomaly": 325.0672,
        "meta_ephemeris_type": 0,
        "meta_classification_type": "U",
        "meta_norad_cat_id": 36828,
        "meta_element_set_no": 999,
        "meta_rev_at_epoch": 5618,
        "meta_bstar": 0,
        "meta_mean_motion_dot": -6.9e-07,
        "meta_mean_motion_ddot": 0,
        "tle_line1": "1 36828U 10036A   25342.44541654 -.00000069  00000+0  00000+0 0  9990",
        "tle_line2": "2 36828  54.2853 164.6865 0051235 215.8868 325.0672  1.00277305 56186"
      },
      "geometry": {
        "type": "Point",
        "coordinates": [
          155.33713527403603,
          -12.692546381388974
        ]
      }
    },
    {
      "type": "Feature",
      "properties": {
        "norad_id": 37210,
        "name": "BEIDOU-2 G4 (C04)",
        "group": "gnss",
        "lat": 2.395813655359805,
        "lon": -159.32247478442858,
        "alt_km": 35762.56372188687,
        "timestamp": "2025-12-08T21:31:04.910167+00:00",
        "meta_object_name": "BEIDOU-2 G4 (C04)",
        "meta_object_id": "2010-057A",
        "meta_epoch": "2025-12-08T13:24:38.712960",
        "meta_mean_motion": 1.002715,
        "meta_eccentricity": 0.00108984,
        "meta_inclination": 3.1742,
        "meta_ra_of_asc_node": 69.9494,
        "meta_arg_of_pericenter": 190.4296,
        "meta_mean_anomaly": 178.4209,
        "meta_ephemeris_type": 0,
        "meta_classification_type": "U",
        "meta_norad_cat_id": 37210,
        "meta_element_set_no": 999,
        "meta_rev_at_epoch": 5538,
        "meta_bstar": 0,
        "meta_mean_motion_dot": -1.1e-06,
        "meta_mean_motion_ddot": 0,
        "tle_line1": "1 37210U 10057A   25342.55878140 -.00000110  00000+0  00000+0 0  9991",
        "tle_line2": "2 37210   3.1742  69.9494 0010898 190.4296 178.4209  1.00271500 55388"
      },
      "geometry": {
        "type": "Point",
        "coordinates": [
          -159.32247478442858,
          2.395813655359805
        ]
      }
    },
    {
      "type": "Feature",
      "properties": {
        "norad_id": 37256,
        "name": "BEIDOU-2 IGSO-2 (C07)",
        "group": "gnss",
        "lat": -36.96585694675427,
        "lon": 136.9590494776111,
        "alt_km": 35589.488803528366,
        "timestamp": "2025-12-08T21:31:04.910179+00:00",
        "meta_object_name": "BEIDOU-2 IGSO-2 (C07)",
        "meta_object_id": "2010-068A",
        "meta_epoch": "2025-12-03T17:22:36.030432",
        "meta_mean_motion": 1.0028871,
        "meta_eccentricity": 0.00492335,
        "meta_inclination": 47.9043,
        "meta_ra_of_asc_node": 274.2613,
        "meta_arg_of_pericenter": 216.1442,
        "meta_mean_anomaly": 310.2369,
        "meta_ephemeris_type": 0,
        "meta_classification_type": "U",
        "meta_norad_cat_id": 37256,
        "meta_element_set_no": 999,
        "meta_rev_at_epoch": 5483,
        "meta_bstar": 0,
        "meta_mean_motion_dot": -2.25e-06,
        "meta_mean_motion_ddot": 0,
        "tle_line1": "1 37256U 10068A   25337.72402813 -.00000225  00000+0  00000+0 0  9993",
        "tle_line2": "2 37256  47.9043 274.2613 0049233 216.1442 310.2369  1.00288710 54839"
      },
      "geometry": {
        "type": "Point",
        "coordinates": [
          136.9590494776111,
          -36.96585694675427
        ]
      }
    },
    {
      "type": "Feature",
      "properties": {
        "norad_id": 37384,
        "name": "BEIDOU-2 IGSO-3 (C08)",
        "group": "gnss",
        "lat": 58.26190307578952,
        "lon": 163.33538760280172,
        "alt_km": 35757.5833456529,
        "timestamp": "2025-12-08T21:31:04.910192+00:00",
        "meta_object_name": "BEIDOU-2 IGSO-3 (C08)",
        "meta_object_id": "2011-013A",
        "meta_epoch": "2025-12-07T14:00:04.361184",
        "meta_mean_motion": 1.00271435,
        "meta_eccentricity": 0.00353343,
        "meta_inclination": 62.1366,
        "meta_ra_of_asc_node": 41.9657,
        "meta_arg_of_pericenter": 187.0632,
        "meta_mean_anomaly": 165.2408,
        "meta_ephemeris_type": 0,
        "meta_classification_type": "U",
        "meta_norad_cat_id": 37384,
        "meta_element_set_no": 999,
        "meta_rev_at_epoch": 5373,
        "meta_bstar": 0,
        "meta_mean_motion_dot": -1.91e-06,
        "meta_mean_motion_ddot": 0,
        "tle_line1": "1 37384U 11013A   25341.58338381 -.00000191  00000+0  00000+0 0  9995",
        "tle_line2": "2 37384  62.1366  41.9657 0035334 187.0632 165.2408  1.00271435 53735"
      },
      "geometry": {
        "type": "Point",
        "coordinates": [
          163.33538760280172,
          58.26190307578952
        ]
      }
    },
    {
      "type": "Feature",
      "properties": {
        "norad_id": 37605,
        "name": "GSAT-8 (GAGAN/PRN 127)",
        "group": "gnss",
        "lat": 0.3478423021362985,
        "lon": 95.73458720427722,
        "alt_km": 35823.69139658468,
        "timestamp": "2025-12-08T21:31:04.910205+00:00",
        "meta_object_name": "GSAT-8 (GAGAN/PRN 127)",
        "meta_object_id": "2011-022A",
        "meta_epoch": "2025-12-08T13:51:58.237632",
        "meta_mean_motion": 1.00270482,
        "meta_eccentricity": 0.0008953,
        "meta_inclination": 1.6388,
        "meta_ra_of_asc_node": 84.2328,
        "meta_arg_of_pericenter": 181.3521,
        "meta_mean_anomaly": 75.0846,
        "meta_ephemeris_type": 0,
        "meta_classification_type": "U",
        "meta_norad_cat_id": 37605,
        "meta_element_set_no": 999,
        "meta_rev_at_epoch": 5130,
        "meta_bstar": 0,
        "meta_mean_motion_dot": 8.7e-07,
        "meta_mean_motion_ddot": 0,
        "tle_line1": "1 37605U 11022A   25342.57775738  .00000087  00000+0  00000+0 0  9995",
        "tle_line2": "2 37605   1.6388  84.2328 0008953 181.3521  75.0846  1.00270482 51305"
      },
      "geometry": {
        "type": "Point",
        "coordinates": [
          95.73458720427722,
          0.3478423021362985
        ]
      }
    },
    {
      "type": "Feature",
      "properties": {
        "norad_id": 37763,
        "name": "BEIDOU-2 IGSO-4 (C09)",
        "group": "gnss",
        "lat": -24.61354811386287,
        "lon": 148.32210874296902,
        "alt_km": 35875.616830479135,
        "timestamp": "2025-12-08T21:31:04.910218+00:00",
        "meta_object_name": "BEIDOU-2 IGSO-4 (C09)",
        "meta_object_id": "2011-038A",
        "meta_epoch": "2025-12-01T12:32:09.960864",
        "meta_mean_motion": 1.00284074,
        "meta_eccentricity": 0.01487808,
        "meta_inclination": 54.5808,
        "meta_ra_of_asc_node": 167.4476,
        "meta_arg_of_pericenter": 230.2031,
        "meta_mean_anomaly": 315.0387,
        "meta_ephemeris_type": 0,
        "meta_classification_type": "U",
        "meta_norad_cat_id": 37763,
        "meta_element_set_no": 999,
        "meta_rev_at_epoch": 5266,
        "meta_bstar": 0,
        "meta_mean_motion_dot": 1.01e-06,
        "meta_mean_motion_ddot": 0,
        "tle_line1": "1 37763U 11038A   25335.52233751  .00000101  00000+0  00000+0 0  9995",
        "tle_line2": "2 37763  54.5808 167.4476 0148780 230.2031 315.0387  1.00284074 52664"
      },
      "geometry": {
        "type": "Point",
        "coordinates": [
          148.32210874296902,
          -24.61354811386287
        ]
      }
    }
  ]
}